[{"OBJECT_NAME":"ONEWEB-0228","OBJECT_ID":"2021-045P","EPOCH":"2026-03-09T20:10:06.527712","MEAN_MOTION":13.15547002,"ECCENTRICITY":0.00016504,"INCLINATION":87.8947,"RA_OF_ASC_NODE":279.0082,"ARG_OF_PERICENTER":92.7092,"MEAN_ANOMALY":267.4227,"EPHEMERIS_TYPE":0,"CLASSIFICATION_TYPE":"U","NORAD_CAT_ID":48780,"ELEMENT_SET_NO":999,"REV_AT_EPOCH":23126,"BSTAR":-0.00044862781,"MEAN_MOTION_DOT":-1.56e-6,"MEAN_MOTION_DDOT":0},{"OBJECT_NAME":"CZ-4C DEB","OBJECT_ID":"2015-040C","EPOCH":"2026-03-09T03:23:21.887520","MEAN_MOTION":13.1056365,"ECCENTRICITY":0.01506715,"INCLINATION":100.3116,"RA_OF_ASC_NODE":42.347,"ARG_OF_PERICENTER":180.9058,"MEAN_ANOMALY":179.18,"EPHEMERIS_TYPE":0,"CLASSIFICATION_TYPE":"U","NORAD_CAT_ID":43424,"ELEMENT_SET_NO":999,"REV_AT_EPOCH":49912,"BSTAR":0.00056122844,"MEAN_MOTION_DOT":1.65e-6,"MEAN_MOTION_DDOT":0}]
